OBJECT_NAME,OBJECT_ID,EPOCH,MEAN_MOTION,ECCENTRICITY,INCLINATION,RA_OF_ASC_NODE,ARG_OF_PERICENTER,MEAN_ANOMALY,EPHEMERIS_TYPE,CLASSIFICATION_TYPE,NORAD_CAT_ID,ELEMENT_SET_NO,REV_AT_EPOCH,BSTAR,MEAN_MOTION_DOT,MEAN_MOTION_DDOT
SHARJAHSAT-1,2023-001CZ,2026-07-08T13:16:53.818752,15.49932871,.00054674,97.3158,258.6264,42.1942,317.9730,0,U,55104,999,19580,.2540428E-3,.14122E-3,0
HORUS 1,2023-025A,2026-07-08T15:10:23.211840,15.23493103,.0002688,97.3455,263.7758,123.0833,237.0662,0,U,55690,999,18731,.16268E-3,.3812E-4,0
HORUS 2,2023-032A,2026-07-08T12:51:11.437920,15.23298600,.00007096,97.3526,264.5083,120.6987,239.4320,0,U,55844,999,18473,.15108716E-3,.3514E-4,0
GLOBAL-19,2023-041B,2026-07-08T01:41:01.711680,15.38551274,.00083942,42.0014,80.0626,170.2960,189.8043,0,U,55982,999,18514,.20987399E-3,.7915E-4,0
ION SCV-010,2023-054Q,2026-07-08T14:21:36.123264,15.26385232,.00142861,97.3753,78.8258,124.6984,235.5603,0,U,56192,999,17946,.12255352E-3,.3123E-4,0
TELEOS-2,2023-057C,2026-07-08T05:13:45.507648,14.96391636,.00009186,9.9885,51.0433,256.4775,103.5337,0,U,56310,999,17595,.31944746E-3,.4408E-4,0
SNIPE 4,2023-072B,2026-07-08T13:16:50.322144,15.43194860,.00042151,97.5242,36.2469,233.5838,126.5021,0,U,56744,999,17340,.33135753E-3,.14622E-3,0
SNIPE 2,2023-072C,2026-07-08T14:19:29.216352,15.47976554,.00027871,97.5230,39.4883,266.8721,93.2210,0,U,56745,999,17355,.38069538E-3,.19808E-3,0
2023-072G,2023-072G,2026-07-08T14:37:46.515360,15.51840447,.00017775,97.4886,38.3305,236.7696,123.3386,0,U,56749,999,17378,.41414113E-3,.24715E-3,0
GEISAT PRECURSOR,2023-084C,2026-07-08T12:55:16.720608,15.34946580,.00041149,97.6244,331.2017,261.1128,98.9648,0,U,56934,999,17080,.14490667E-3,.4827E-4,0
BLACKJACK ACES-3,2023-084U,2026-07-07T22:14:11.448096,15.18677719,.00008355,97.6234,324.2799,313.8515,46.2650,0,U,56950,999,17031,.1701982E-3,.3458E-4,0
BLACKJACK ACES-2,2023-084Z,2026-07-08T09:26:56.105952,15.18678446,.00011619,97.6229,324.8351,143.4930,216.6383,0,U,56955,999,17039,.21503876E-3,.4388E-4,0
BLACKJACK ACES-1,2023-084AA,2026-07-08T07:34:22.080576,15.18725087,.00016149,97.6222,324.5285,124.7324,235.4062,0,U,56956,999,12010,.2184807E-3,.4465E-4,0
ION SCV-011,2023-084AB,2026-07-08T06:29:54.940992,15.29050575,.00063763,98.1388,18.5069,333.6107,26.4805,0,U,56957,999,16903,.12001196E-3,.3297E-4,0
GHOST-3,2023-084AC,2026-07-08T08:42:26.778816,15.48614222,.00063605,97.6234,339.0844,208.3815,151.7089,0,U,56958,999,17129,.23395587E-3,.12404E-3,0
AFR-1,2023-084AJ,2026-07-08T13:43:48.002304,15.28738344,.00090012,97.6297,326.7835,261.9090,98.1128,0,U,56964,999,17049,.1177089E-3,.3211E-4,0
METEOR-M2 3,2023-091A,2026-07-08T14:22:09.408000,14.24048570,.00051232,98.6076,244.1377,105.0711,255.1035,0,U,57166,999,15756,.10985727E-4,-.18E-6,0
UMKA 1 (RS40S),2023-091G,2026-07-08T13:00:04.084416,15.21072482,.00136317,97.5040,248.1585,51.1673,309.0777,0,U,57172,999,16725,.17900458E-3,.3916E-4,0
2023-091H,2023-091H,2026-07-08T12:28:17.865408,15.29118393,.00102342,97.5037,252.8893,47.2914,312.9186,0,U,57173,999,16756,.29121806E-3,.8167E-4,0
2023-091J,2023-091J,2026-07-08T12:52:02.174592,15.14082397,.0014738,97.5044,242.3284,77.0156,283.2720,0,U,57174,999,16686,.13314618E-3,.2362E-4,0
CUBEBEL 2 (EU11S),2023-091K,2026-07-08T12:18:26.625888,15.29712312,.00102041,97.5039,252.9263,48.4873,311.7241,0,U,57175,999,16756,.32806783E-3,.9382E-4,0
SITRO-AIS 5 (KATYS),2023-091L,2026-07-08T12:37:18.306912,15.29962558,.00113735,97.5049,253.6337,35.5393,324.6602,0,U,57176,999,16760,.29479037E-3,.849E-4,0
ZORKIY-2M 1,2023-091M,2026-07-08T12:38:24.523872,15.21192852,.00140403,97.5080,248.4263,48.2985,311.9449,0,U,57177,999,16724,.21784502E-3,.4799E-4,0
CUBESX-HSE 3 (RS42S),2023-091N,2026-07-08T12:56:48.429888,15.31772307,.0010384,97.5081,255.4028,25.5946,334.5808,0,U,57178,999,16769,.30894948E-3,.9415E-4,0
MONITOR-3 (RS58S),2023-091Q,2026-07-08T13:06:40.173984,15.28285215,.00116968,97.5073,253.1536,32.6619,327.5341,0,U,57180,999,16755,.26022716E-3,.7108E-4,0
MONITOR-4 (RS57S),2023-091S,2026-07-08T11:00:31.494240,15.28370377,.00117013,97.5066,253.0377,33.3323,326.8651,0,U,57182,999,16754,.27843299E-3,.7631E-4,0
MONITOR-2 (RS39S),2023-091U,2026-07-08T12:34:52.880160,15.19115156,.00120343,97.5062,247.6702,45.6327,314.5891,0,U,57184,999,16719,.16826724E-3,.3469E-4,0
SVYATOBOR 1 (RS60S),2023-091X,2026-07-08T13:20:42.376992,15.26989469,.00094333,97.5078,253.4948,27.4744,332.6991,0,U,57187,999,16757,.22776188E-3,.5965E-4,0
HORS 1,2023-091Y,2026-07-08T11:23:17.704608,15.27104300,.00089137,97.5056,253.1725,28.1209,332.0509,0,U,57188,999,16756,.24708711E-3,.65E-4,0
VIZARD-METEO (RS38S),2023-091Z,2026-07-08T13:48:57.445632,15.36729441,.00062949,97.5079,259.4982,6.1804,353.9517,0,U,57189,999,16797,.33148972E-3,.11822E-3,0
