SHARJAHSAT-1            
1 55104U 23001CZ  26189.55340068  .00014122  00000+0  25404-3 0  9995
2 55104  97.3158 258.6264 0005467  42.1942 317.9730 15.49932871195809
HORUS 1                 
1 55690U 23025A   26189.63221310  .00003812  00000+0  16268-3 0  9990
2 55690  97.3455 263.7758 0002688 123.0833 237.0662 15.23493103187319
HORUS 2                 
1 55844U 23032A   26189.53554905  .00003514  00000+0  15109-3 0  9999
2 55844  97.3526 264.5083 0000709 120.6987 239.4320 15.23298600184739
GLOBAL-19               
1 55982U 23041B   26189.07015870  .00007915  00000+0  20987-3 0  9993
2 55982  42.0014  80.0626 0008394 170.2960 189.8043 15.38551274185146
ION SCV-010             
1 56192U 23054Q   26189.59833476  .00003123  00000+0  12255-3 0  9994
2 56192  97.3753  78.8258 0014286 124.6984 235.5603 15.26385232179460
TELEOS-2                
1 56310U 23057C   26189.21788782  .00004408  00000+0  31945-3 0  9991
2 56310   9.9885  51.0433 0000918 256.4775 103.5337 14.96391636175953
SNIPE 4                 
1 56744U 23072B   26189.55336021  .00014622  00000+0  33136-3 0  9994
2 56744  97.5242  36.2469 0004215 233.5838 126.5021 15.43194860173404
SNIPE 2                 
1 56745U 23072C   26189.59686593  .00019808  00000+0  38070-3 0  9994
2 56745  97.5230  39.4883 0002787 266.8721  93.2210 15.47976554173557
2023-072G               
1 56749U 23072G   26189.60956615  .00024715  00000+0  41414-3 0  9994
2 56749  97.4886  38.3305 0001777 236.7696 123.3386 15.51840447173789
GEISAT PRECURSOR        
1 56934U 23084C   26189.53838797  .00004827  00000+0  14491-3 0  9992
2 56934  97.6244 331.2017 0004114 261.1128  98.9648 15.34946580170804
BLACKJACK ACES-3        
1 56950U 23084U   26188.92652139  .00003458  00000+0  17020-3 0  9996
2 56950  97.6234 324.2799 0000835 313.8515  46.2650 15.18677719170313
BLACKJACK ACES-2        
1 56955U 23084Z   26189.39370493  .00004388  00000+0  21504-3 0  9998
2 56955  97.6229 324.8351 0001161 143.4930 216.6383 15.18678446170395
BLACKJACK ACES-1        
1 56956U 23084AA  26189.31553334  .00004465  00000+0  21848-3 0  9995
2 56956  97.6222 324.5285 0001614 124.7324 235.4062 15.18725087120105
ION SCV-011             
1 56957U 23084AB  26189.27077478  .00003297  00000+0  12001-3 0  9994
2 56957  98.1388  18.5069 0006376 333.6107  26.4805 15.29050575169038
GHOST-3                 
1 56958U 23084AC  26189.36280994  .00012404  00000+0  23396-3 0  9993
2 56958  97.6234 339.0844 0006360 208.3815 151.7089 15.48614222171295
AFR-1                   
1 56964U 23084AJ  26189.57208336  .00003211  00000+0  11771-3 0  9993
2 56964  97.6297 326.7835 0009001 261.9090  98.1128 15.28738344170498
METEOR-M2 3             
1 57166U 23091A   26189.59872000 -.00000018  00000+0  10986-4 0  9994
2 57166  98.6076 244.1377 0005123 105.0711 255.1035 14.24048570157567
UMKA 1 (RS40S)          
1 57172U 23091G   26189.54171394  .00003916  00000+0  17900-3 0  9995
2 57172  97.5040 248.1585 0013631  51.1673 309.0777 15.21072482167255
2023-091H               
1 57173U 23091H   26189.51965122  .00008167  00000+0  29122-3 0  9995
2 57173  97.5037 252.8893 0010234  47.2914 312.9186 15.29118393167567
2023-091J               
1 57174U 23091J   26189.53613628  .00002362  00000+0  13315-3 0  9997
2 57174  97.5044 242.3284 0014738  77.0156 283.2720 15.14082397166860
CUBEBEL 2 (EU11S)       
1 57175U 23091K   26189.51280817  .00009382  00000+0  32807-3 0  9992
2 57175  97.5039 252.9263 0010204  48.4873 311.7241 15.29712312167567
SITRO-AIS 5 (KATYS)     
1 57176U 23091L   26189.52590633  .00008490  00000+0  29479-3 0  9994
2 57176  97.5049 253.6337 0011373  35.5393 324.6602 15.29962558167609
ZORKIY-2M 1             
1 57177U 23091M   26189.52667273  .00004799  00000+0  21785-3 0  9990
2 57177  97.5080 248.4263 0014040  48.2985 311.9449 15.21192852167249
CUBESX-HSE 3 (RS42S)    
1 57178U 23091N   26189.53944942  .00009415  00000+0  30895-3 0  9995
2 57178  97.5081 255.4028 0010384  25.5946 334.5808 15.31772307167699
MONITOR-3 (RS58S)       
1 57180U 23091Q   26189.54629831  .00007108  00000+0  26023-3 0  9991
2 57180  97.5073 253.1536 0011696  32.6619 327.5341 15.28285215167557
MONITOR-4 (RS57S)       
1 57182U 23091S   26189.45869785  .00007631  00000+0  27843-3 0  9999
2 57182  97.5066 253.0377 0011701  33.3323 326.8651 15.28370377167549
MONITOR-2 (RS39S)       
1 57184U 23091U   26189.52422315  .00003469  00000+0  16827-3 0  9998
2 57184  97.5062 247.6702 0012034  45.6327 314.5891 15.19115156167191
SVYATOBOR 1 (RS60S)     
1 57187U 23091X   26189.55604603  .00005965  00000+0  22776-3 0  9999
2 57187  97.5078 253.4948 0009433  27.4744 332.6991 15.26989469167576
HORS 1                  
1 57188U 23091Y   26189.47451047  .00006500  00000+0  24709-3 0  9997
2 57188  97.5056 253.1725 0008913  28.1209 332.0509 15.27104300167561
VIZARD-METEO (RS38S)    
1 57189U 23091Z   26189.57566488  .00011822  00000+0  33149-3 0  9996
2 57189  97.5079 259.4982 0006294   6.1804 353.9517 15.36729441167973
